1 25933U 99055A   19060.68823650 -.00000055  00000-0  00000+0 0  9994
2 25933  52.0612  50.4898 0163049 107.1262 105.9081  2.00561447142129
1 25933U 99055A   19060.68823650 -.00000055  00000-0  00000-0 0  9995
2 25933  52.0612  50.4898 0163049 107.1262 105.9081  2.00561447142130
1 25933U 99055A   19061.59008074 -.00000054  00000-0  00000-0 0  9990
2 25933  52.0618  50.4507 0163050 107.1358  37.0755  2.00561447142156
1 25933U 99055A   19062.17916318 -.00000054  00000-0  00000+0 0  9993
2 25933  52.0622  50.4252 0163046 107.1430 102.4154  2.00561442142159
1 25933U 99055A   19062.65443424 -.00000054  00000-0  00000-0 0  9990
2 25933  52.0625  50.4046 0163046 107.1481  85.5799  2.00561437142171
1 25933U 99055A   19063.60584978 -.00000053  00000-0  00000+0 0  9994
2 25933  52.0632  50.3634 0163044 107.1577  52.5400  2.00561421142182
1 25933U 99055A   19064.38125772 -.00000052  00000-0  00000+0 0  9992
2 25933  52.0636  50.3298 0163040 107.1645 252.4164  2.00561402142204
1 25933U 99055A   19065.38640623 -.00000051  00000-0  00000+0 0  9999
2 25933  52.0643  50.2862 0163040 107.1739 258.1744  2.00561371142226
1 25933U 99055A   19066.12271588 -.00000049  00000-0  00000+0 0  9999
2 25933  52.0648  50.2543 0163040 107.1829  69.8178  2.00561345142237
1 25933U 99055A   19066.62508715 -.00000048  00000-0  00000+0 0  9998
2 25933  52.0651  50.2326 0163041 107.1881  72.5497  2.00561325142243
1 25933U 99055A   19067.65006750 -.00000045  00000-0  00000-0 0  9992
2 25933  52.0657  50.1882 0163042 107.1994  92.6252  2.00561281142277
1 25933U 99055A   19068.10727910 -.00000043  00000-0  00000+0 0  9998
2 25933  52.0660  50.1683 0163043 107.2044  62.7497  2.00561260142274
1 25933U 99055A   19068.10727910 -.00000043  00000-0  00000-0 0  9999
2 25933  52.0660  50.1683 0163043 107.2044  62.7497  2.00561260142285
1 25933U 99055A   19068.65867674 -.00000041  00000-0  00000-0 0  9999
2 25933  52.0663  50.1445 0163044 107.2074 100.8832  2.00561231142294
1 25933U 99055A   19069.56691317 -.00000037  00000-0  00000+0 0  9993
2 25933  52.0669  50.1051 0163044 107.2171  36.6651  2.00561185142306
1 25933U 99055A   19069.88470590 -.00000036  00000-0  00000-0 0  9996
2 25933  52.0671  50.0913 0163042 107.2221 266.1222  2.00561170142329
1 25933U 99055A   19070.09722932 -.00000035  00000-0  00000+0 0  9999
2 25933  52.0672  50.0821 0163041 107.2248  59.5720  2.00561158142318
1 25933U 99055A   19070.62198693 -.00000033  00000-0  00000-0 0  9998
2 25933  52.0676  50.0593 0163040 107.2306  78.4671  2.00561130142339
1 25933U 99055A   19071.11180795 -.00000031  00000-0  00000+0 0  9994
2 25933  52.0679  50.0381 0163039 107.2360  72.1366  2.00561103142337
1 25933U 99055A   19071.58650689 -.00000030  00000-0  00000+0 0  9998
2 25933  52.0682  50.0175 0163040 107.2405  54.8881  2.00561078142345
1 25933U 99055A   19071.58650689 -.00000030  00000-0  00000-0 0  9999
2 25933  52.0682  50.0175 0163040 107.2405  54.8881  2.00561078142356
1 25933U 99055A   19072.84280685 -.00000027  00000-0  00000-0 0  9990
2 25933  52.0691  49.9630 0163043 107.2535 241.9854  2.00561014142377
1 25933U 99055A   19073.35480358 -.00000027  00000-0  00000+0 0  9995
2 25933  52.0694  49.9409 0163041 107.2606 251.6651  2.00560990142387
1 25933U 99055A   19074.34980003 -.00000028  00000-0  00000+0 0  9998
2 25933  52.0700  49.8977 0163043 107.2726 250.0892  2.00560944142401
1 25933U 99055A   19074.55573156 -.00000029  00000-0  00000-0 0  9990
2 25933  52.0701  49.8888 0163040 107.2738  38.7808  2.00560935142412
1 25933U 99055A   19075.08567584 -.00000030  00000-0  00000+0 0  9998
2 25933  52.0705  49.8658 0163044 107.2794  61.4208  2.00560913142410
1 25933U 99055A   19075.59865411 -.00000032  00000-0  00000-0 0  9997
2 25933  52.0708  49.8435 0163048 107.2851  71.8105  2.00560894142435
1 25933U 99055A   19076.15221670 -.00000035  00000-0  00000+0 0  9995
2 25933  52.0712  49.8195 0163051 107.2938 111.5011  2.00560876142431
1 25933U 99055A   19077.63647992 -.00000045  00000-0  00000-0 0  9990
2 25933  52.0721  49.7551 0163060 107.3127 103.1926  2.00560836142479
1 25933U 99055A   19077.84149586 -.00000047  00000-0  00000-0 0  9991
2 25933  52.0722  49.7462 0163062 107.3174 251.2193  2.00560832142472
1 25933U 99055A   19078.11930948 -.00000049  00000-0  00000+0 0  9993
2 25933  52.0724  49.7341 0163062 107.3196  91.8122  2.00560827142478
1 25933U 99055A   19078.65219257 -.00000053  00000-0  00000+0 0  9990
2 25933  52.0728  49.7110 0163063 107.3289 116.5705  2.00560820142486
1 25933U 99055A   19078.65219257 -.00000053  00000-0  00000-0 0  9991
2 25933  52.0728  49.7110 0163063 107.3289 116.5705  2.00560820142497
1 25933U 99055A   19079.60368064 -.00000060  00000-0  00000-0 0  9996
2 25933  52.0734  49.6698 0163069 107.3406  83.5794  2.00560808142511
1 25933U 99055A   19080.08536209 -.00000063  00000-0  00000+0 0  9990
2 25933  52.0736  49.6489 0163077 107.3433  71.3741  2.00560804142513
1 25933U 99055A   19081.57934514 -.00000069  00000-0  00000-0 0  9993
2 25933  52.0746  49.5841 0163094 107.3618  70.0836  2.00560801142551
1 25933U 99055A   19082.56842029 -.00000071  00000-0  00000-0 0  9995
2 25933  52.0752  49.5412 0163098 107.3759  64.2297  2.00560806142564
1 25933U 99055A   19083.33346854 -.00000071  00000-0  00000+0 0  9995
2 25933  52.0757  49.5080 0163099 107.3886 256.6188  2.00560814142589
1 25933U 99055A   19084.53477847 -.00000069  00000-0  00000+0 0  9992
2 25933  52.0764  49.4560 0163112 107.4045  44.0067  2.00560826142604
1 25933U 99055A   19084.82714801 -.00000069  00000-0  00000+0 0  9998
2 25933  52.0766  49.4433 0163116 107.4075 255.1086  2.00560828142611
1 25933U 99055A   19084.82714801 -.00000069  00000-0  00000-0 0  9999
2 25933  52.0766  49.4433 0163116 107.4075 255.1086  2.00560828142622
1 25933U 99055A   19086.03875785 -.00000067  00000-0  00000+0 0  9990
2 25933  52.0773  49.3908 0163138 107.4217  49.9351  2.00560840142637
1 25933U 99055A   19086.81504170 -.00000066  00000-0  00000-0 0  9993
2 25933  52.0778  49.3572 0163146 107.4329 250.4381  2.00560844142650
1 25933U 99055A   19087.07045809 -.00000065  00000-0  00000+0 0  9999
2 25933  52.0780  49.3461 0163150 107.4379  74.8562  2.00560847142652
1 25933U 99055A   19087.82012132 -.00000065  00000-0  00000-0 0  9996
2 25933  52.0784  49.3136 0163158 107.4487 256.1382  2.00560849142683
1 25933U 99055A   19088.46988941 -.00000065  00000-0  00000+0 0  9996
2 25933  52.0788  49.2855 0163169 107.4585   5.2923  2.00560850142681
1 25933U 99055A   19089.05883178 -.00000065  00000-0  00000+0 0  9998
2 25933  52.0791  49.2600 0163175 107.4666  70.5289  2.00560847142697
1 25933U 99055A   19089.59764602 -.00000065  00000-0  00000+0 0  9997
2 25933  52.0795  49.2366 0163182 107.4735  99.5718  2.00560843142701
1 25933U 99055A   19089.59764602 -.00000065  00000-0  00000-0 0  9998
2 25933  52.0795  49.2366 0163182 107.4735  99.5718  2.00560843142712
1 25933U 99055A   19090.61002486 -.00000065  00000-0  00000+0 0  9997
2 25933  52.0801  49.1928 0163192 107.4873 110.5441  2.00560830142721
1 25933U 99055A   19090.61002486 -.00000065  00000-0  00000-0 0  9998
2 25933  52.0801  49.1928 0163192 107.4873 110.5441  2.00560830142732
1 25933U 99055A   19092.30682365 -.00000064  00000-0  00000+0 0  9994
2 25933  52.0811  49.1193 0163215 107.5050 255.6963  2.00560796142765
1 25933U 99055A   19092.30682365 -.00000064  00000-0  00000-0 0  9995
2 25933  52.0811  49.1193 0163215 107.5050 255.6963  2.00560796142765
1 25933U 99055A   19093.54550453 -.00000062  00000-0  00000+0 0  9991
2 25933  52.0818  49.0657 0163234 107.5214  70.0666  2.00560756142786
1 25933U 99055A   19095.59983369 -.00000056  00000-0  00000+0 0  9997
2 25933  52.0830  48.9768 0163266 107.5496 113.3618  2.00560669142824
1 25933U 99055A   19096.79361252 -.00000051  00000-0  00000+0 0  9996
2 25933  52.0837  48.9251 0163282 107.5666 255.3096  2.00560612142853
1 25933U 99055A   19096.79361252 -.00000051  00000-0  00000-0 0  9997
2 25933  52.0837  48.9251 0163282 107.5666 255.3096  2.00560612142864
1 25933U 99055A   19098.10603560 -.00000046  00000-0  00000+0 0  9998
2 25933  52.0844  48.8683 0163302 107.5855 122.9223  2.00560544142879
1 25933U 99055A   19099.59273653 -.00000042  00000-0  00000-0 0  9995
2 25933  52.0853  48.8039 0163321 107.6049 116.3710  2.00560466142917
1 25933U 99055A   19100.43371274 -.00000042  00000-0  00000+0 0  9998
2 25933  52.0858  48.7674 0163330 107.6161   3.5841  2.00560426142920
1 25933U 99055A   19101.28006330 -.00000042  00000-0  00000+0 0  9990
2 25933  52.0863  48.7308 0163343 107.6279 254.6770  2.00560386142941
1 25933U 99055A   19102.51904403 -.00000045  00000-0  00000+0 0  9998
2 25933  52.0870  48.6771 0163364 107.6442  69.2627  2.00560331142960
1 25933U 99055A   19103.10338758 -.00000048  00000-0  00000+0 0  9991
2 25933  52.0874  48.6517 0163380 107.6525 131.1778  2.00560309142974
1 25933U 99055A   19104.01406352 -.00000054  00000-0  00000+0 0  9995
2 25933  52.0879  48.6123 0163397 107.6662  68.7145  2.00560279142993
1 25933U 99055A   19105.48812000 -.00000065  00000-0  00000+0 0  9990
2 25933  52.0887  48.5484 0163424 107.6904  53.0277  2.00560242143029
1 25933U 99055A   19105.76706756 -.00000067  00000-0  00000+0 0  9993
2 25933  52.0889  48.5363 0163434 107.6956 254.4355  2.00560236143033
1 25933U 99055A   19105.76706756 -.00000067  00000-0  00000-0 0  9994
2 25933  52.0889  48.5363 0163434 107.6956 254.4355  2.00560236143044
1 25933U 99055A   19106.77471958 -.00000074  00000-0  00000-0 0  9997
2 25933  52.0895  48.4926 0163453 107.7119 261.9907  2.00560220143069
1 25933U 99055A   19107.55193117 -.00000079  00000-0  00000-0 0  9997
2 25933  52.0900  48.4589 0163472 107.7234 103.1619  2.00560213143070
1 25933U 99055A   19108.57511788 -.00000084  00000-0  00000-0 0  9994
2 25933  52.0906  48.4146 0163499 107.7396 121.9339  2.00560209143086
